FENGYUN 1C DEB          
1 31284U 99025BNS 17345.94037187  .00000134  00000-0  12911-3 0  9997
2 31284  99.7353 233.3119 0151358 310.4396 105.2731 13.93046505544263
